BEIDOU 3 (C01)          
1 36287U 10001A   21220.56299266 -.00000282  00000-0  00000-0 0  9993
2 36287   1.9545  48.2908 0005740  87.4343 164.6860  1.00270391 42378
BEIDOU 5 (C06)          
1 36828U 10036A   21217.81935479 -.00000003  00000-0  00000+0 0  9999
2 36828  54.1865 179.1432 0059377 230.9795 303.6568  0.99385024 40411
BEIDOU 6 (C04)          
1 37210U 10057A   21220.60974071 -.00000113  00000-0  00000-0 0  9993
2 37210   0.9259  52.6126 0005742 126.8798 157.4011  1.00272428 39491
BEIDOU 7 (C07)          
1 37256U 10068A   21220.59702302 -.00000180  00000-0  00000-0 0  9993
2 37256  50.7707 293.3711 0092052 217.7360 138.2932  1.00296907 39005
BEIDOU 8 (C08)          
1 37384U 11013A   21220.12594744 -.00000160  00000-0  00000-0 0  9992
2 37384  59.8451  57.3787 0054250 206.8327 215.9688  1.00291623 37889
BEIDOU 9 (C09)          
1 37763U 11038A   21220.02938694 -.00000064  00000-0  00000-0 0  9998
2 37763  54.4699 181.5650 0084385 227.0078  11.4195  1.00254981 36858
BEIDOU 10 (C10)         
1 37948U 11073A   21219.86241538 -.00000123  00000-0  00000-0 0  9992
2 37948  50.8752 293.0119 0077720 215.7697 214.2788  1.00281872 35611
BEIDOU 11 (C05)         
1 38091U 12008A   21220.11785802  .00000054  00000-0  00000-0 0  9990
2 38091   1.6661  69.0028 0006893 339.0690  10.0103  1.00276762 34681
BEIDOU 12 (C11)         
1 38250U 12018A   21220.18058997 -.00000079  00000-0  00000-0 0  9991
2 38250  56.7510   3.9047 0020932 244.1527 170.7301  1.86234364 63250
BEIDOU 13 (C12)         
1 38251U 12018B   21220.56645049 -.00000078  00000-0  00000-0 0  9993
2 38251  56.6754   3.2387 0011831 243.6625 114.2976  1.86234174 63251
BEIDOU 15 (C14)         
1 38775U 12050B   21220.16578688 -.00000007  00000-0  00000-0 0  9992
2 38775  55.2310 122.2408 0014680 323.6587 323.0862  1.86232267 60625
BEIDOU 16 (C02)         
1 38953U 12059A   21220.61397374 -.00000178  00000-0  00000-0 0  9999
2 38953   1.2205  83.8720 0010919 297.5021 241.0518  1.00274823 32265
BEIDOU 17 (C31)         
1 40549U 15019A   21220.66294354 -.00000150  00000-0  00000-0 0  9991
2 40549  52.4105 316.3885 0039865 188.8096 143.8612  1.00254905 23293
BEIDOU 18 (C57)         
1 40748U 15037A   21220.18089119 -.00000081  00000-0  00000-0 0  9993
2 40748  55.9339   2.3056 0003420  52.2774 317.0061  1.86233449 41082
BEIDOU 19 (C58)         
1 40749U 15037B   21220.49936606 -.00000079  00000-0  00000-0 0  9997
2 40749  55.9388   2.2859 0002318 335.9661  22.7181  1.86232168 41077
BEIDOU 20 (C18)         
1 40938U 15053A   21220.12146597 -.00000088  00000-0  00000-0 0  9997
2 40938  51.9830 279.4723 0048477 194.2492 343.3745  1.00271822 21563
BEIDOU IGSO-6 (C13)     
1 41434U 16021A   21220.01230020 -.00000117  00000-0  00000-0 0  9991
2 41434  57.6301  56.0989 0038535 210.9283 148.4622  1.00259249 19689
BEIDOU-2 G7 (C03)       
1 41586U 16037A   21220.42063131 -.00000355  00000-0  00000-0 0  9992
2 41586   1.8066  68.2477 0008187  19.5080 131.2579  1.00267145 19002
BEIDOU-3 M1 (C19)       
1 43001U 17069A   21220.31643769 -.00000005  00000-0  00000-0 0  9993
2 43001  55.3855 122.1941 0010184 294.8401 248.8575  1.86231820 25561
BEIDOU-3 M2 (C20)       
1 43002U 17069B   21220.24888343 -.00000006  00000-0  00000-0 0  9996
2 43002  55.3854 122.2331 0009184 316.6069 225.1987  1.86231358 25556
BEIDOU-3 M3 (C27)       
1 43107U 18003A   21220.25743589 -.00000081  00000-0  00000-0 0  9997
2 43107  55.3779   3.3606 0005194  62.7391 290.7038  1.86232537 24314
BEIDOU-3 M4 (C28)       
1 43108U 18003B   21220.46606714 -.00000080  00000-0  00000-0 0  9998
2 43108  55.3718   3.3421 0002491 220.0720 318.4267  1.86232558 24321
BEIDOU-3 M5 (C21)       
1 43207U 18018A   21219.57316062 -.00000013  00000-0  00000-0 0  9994
2 43207  55.3445 122.3442 0006859 338.6867  21.3251  1.86231718 23692
BEIDOU-3 M6 (C22)       
1 43208U 18018B   21219.63986665 -.00000013  00000-0  00000-0 0  9994
2 43208  55.3439 122.3462 0008341 307.4934  52.4716  1.86231612 23699
BEIDOU-3 M7 (C29)       
1 43245U 18029A   21220.45043046 -.00000081  00000-0  00000-0 0  9991
2 43245  55.3071   1.1432 0001179 112.7749 280.2873  1.86232669 22862
BEIDOU-3 M8 (C30)       
1 43246U 18029B   21219.77469174 -.00000083  00000-0  10000-3 0  9995
2 43246  55.3048   1.1967 0003268   6.0311 340.2140  1.86233239 22836
BEIDOU IGSO-7 (C16)     
1 43539U 18057A   21220.02908543 -.00000130  00000-0  00000-0 0  9998
2 43539  55.0638 178.4911 0038908 223.5741  36.3335  1.00253084 11363
BEIDOU-3 M9 (C23)       
1 43581U 18062A   21220.30135917  .00000076  00000-0  00000-0 0  9997
2 43581  54.3844 242.8171 0006120 265.0292 284.5188  1.86231867 20595
BEIDOU-3 M10 (C24)      
1 43582U 18062B   21218.80297054  .00000083  00000-0  00000-0 0  9999
2 43582  54.3823 242.8592 0004671 325.9281  30.3977  1.86232172 20563
BEIDOU-3 M11 (C25)      
1 43602U 18067A   21220.35257691  .00000077  00000-0  00000-0 0  9996
2 43602  54.4593 241.3924 0006468 350.1030   7.3065  1.86231669 20081
BEIDOU-3 M12 (C26)      
1 43603U 18067B   21220.29734149  .00000077  00000-0  00000-0 0  9998
2 43603  54.4560 241.3619 0004065 330.3748 260.4526  1.86231597 20101
BEIDOU-3 M13 (C32)      
1 43622U 18072A   21220.29808772 -.00000006  00000-0  00000-0 0  9992
2 43622  55.3096 121.8856 0006730 293.4477 327.9211  1.86231915 19618
BEIDOU-3 M14 (C33)      
1 43623U 18072B   21220.22903544 -.00000006  00000-0  00000-0 0  9999
2 43623  55.3115 121.8795 0005538 319.6156 345.6932  1.86231927 19613
BEIDOU-3 M15 (C34)      
1 43647U 18078A   21219.12689523 -.00000086  00000-0  10000-3 0  9998
2 43647  55.2021   1.3743 0005597   6.4994 175.1014  1.86233058 19103
BEIDOU-3 M16 (C35)      
1 43648U 18078B   21220.42049580 -.00000081  00000-0  00000-0 0  9998
2 43648  55.1971   1.3365 0004077  27.5043 209.7646  1.86232345 19145
BEIDOU-3 G1 (C59)       
1 43683U 18085A   21220.40979997 -.00000282  00000-0  00000-0 0  9990
2 43683   0.9842 220.6439 0003756   5.9578  17.8944  1.00265349 10273
BEIDOU-3 M17 (C36)      
1 43706U 18093A   21219.85227188  .00000078  00000-0  00000+0 0  9991
2 43706  54.4673 242.6947 0011681 267.9309 205.4474  1.86232190 18487
BEIDOU-3 M18 (C37)      
1 43707U 18093B   21220.25449736  .00000076  00000-0  00000-0 0  9992
2 43707  54.4636 242.6731 0009747 287.4394 186.5096  1.86232130 18493
BEIDOU-3 IGSO-1 (C38)   
1 44204U 19023A   21219.82369898 -.00000183  00000-0  00000-0 0  9990
2 44204  56.0896  56.3556 0019500 188.0357 122.6872  1.00280092  8566
BEIDOU-2 G8             
1 44231U 19027A   21220.61021493 -.00000248  00000-0  00000-0 0  9991
2 44231   0.2600  16.4723 0006332 180.0665 124.9667  1.00275766  8284
BEIDOU-3 IGSO-2 (C39)   
1 44337U 19035A   21215.30782832 -.00000095  00000-0  00000+0 0  9997
2 44337  55.0964 174.5721 0020264 193.0950 162.7140  1.00268053  7856
BEIDOU-3 M23 (C45)      
1 44542U 19061A   21220.15674398  .00000078  00000-0  10000-3 0  9995
2 44542  54.6877 242.7657 0008617 315.4088  45.8558  1.86231371 12754
BEIDOU-3 M24 (C46)      
1 44543U 19061B   21220.57319894  .00000076  00000-0  10000-3 0  9997
2 44543  54.6863 242.7210 0006585 298.8239 252.5856  1.86231953 12753
BEIDOU-3 IGSO-3         
1 44709U 19073A   21219.84919549 -.00000142  00000-0  00000-0 0  9996
2 44709  57.7640 299.6322 0021462 202.1496 226.3943  1.00262570  6667
BEIDOU-3 M21            
1 44793U 19078A   21220.47593707 -.00000081  00000-0  10000-3 0  9995
2 44793  55.0489   1.3877 0005741  16.7663 303.6726  1.86232366 11615
BEIDOU-3 M22            
1 44794U 19078B   21220.40396556 -.00000082  00000-0  00000-0 0  9999
2 44794  55.0241   1.3879 0003755  20.5223 162.7479  1.86232880 11612
BEIDOU-3 M19            
1 44864U 19090A   21220.29633280 -.00000006  00000-0  00000-0 0  9992
2 44864  55.2447 122.1140 0016233 270.2682  35.4332  1.86231968 11194
BEIDOU-3 M20            
1 44865U 19090B   21220.16282802 -.00000007  00000-0  00000-0 0  9990
2 44865  55.2470 122.1483 0015062 285.0753  21.0291  1.86231908 11169
BEIDOU-3 G2             
1 45344U 20017A   21220.54141378 -.00000139  00000-0  00000-0 0  9994
2 45344   2.3639 338.2796 0004173 147.4520 106.4731  1.00271402  5487
BEIDOU-3 G3             
1 45807U 20040A   21219.90149104 -.00000352  00000-0  00000-0 0  9994
2 45807   2.1654 298.7335 0007017 340.9772 112.0084  1.00272851  4295
